[{"COMMENT":"GENERATED VIA SPACETRACK.ORG API","ORIGINATOR":"18 SPCS","NORAD_CAT_ID":"43477","OBJECT_NAME":"GRACE-FO 2","OBJECT_TYPE":"PAYLOAD","CLASSIFICATION_TYPE":"U","INTLDES":"18047B","EPOCH":"2023-05-05 22:05:07","EPOCH_MICROSECONDS":"643904","MEAN_MOTION":"15.25915947","ECCENTRICITY":"0.0013306","INCLINATION":"88.991","RA_OF_ASC_NODE":"354.9025","ARG_OF_PERICENTER":"186.7872","MEAN_ANOMALY":"173.3199","EPHEMERIS_TYPE":"0","ELEMENT_SET_NO":"999","REV_AT_EPOCH":"27555","BSTAR":"0.00012799","MEAN_MOTION_DOT":"0.00003317","MEAN_MOTION_DDOT":"0","FILE":"3901993","TLE_LINE0":"0 GRACE-FO 2","TLE_LINE1":"1 43477U 18047B   23125.92022736  .00003317  00000-0  12799-3 0  9994","TLE_LINE2":"2 43477  88.9910 354.9025 0013306 186.7872 173.3199 15.25915947275557","OBJECT_ID":"2018-047B","OBJECT_NUMBER":"43477","SEMIMAJOR_AXIS":"6866.173","PERIOD":"94.370","APOGEE":"497.175","PERIGEE":"478.902","DECAYED":"0"},{"COMMENT":"GENERATED VIA SPACETRACK.ORG API","ORIGINATOR":"18 SPCS","NORAD_CAT_ID":"43477","OBJECT_NAME":"GRACE-FO 2","OBJECT_TYPE":"PAYLOAD","CLASSIFICATION_TYPE":"U","INTLDES":"18047B","EPOCH":"2023-05-06 13:49:29","EPOCH_MICROSECONDS":"12736","MEAN_MOTION":"15.25922121","ECCENTRICITY":"0.0013435","INCLINATION":"88.9906","RA_OF_ASC_NODE":"354.8137","ARG_OF_PERICENTER":"184.2562","MEAN_ANOMALY":"175.8574","EPHEMERIS_TYPE":"0","ELEMENT_SET_NO":"999","REV_AT_EPOCH":"27565","BSTAR":"0.00015291","MEAN_MOTION_DOT":"0.00003958","MEAN_MOTION_DDOT":"0","FILE":"3902298","TLE_LINE0":"0 GRACE-FO 2","TLE_LINE1":"1 43477U 18047B   23126.57603024  .00003958  00000-0  15291-3 0  9992","TLE_LINE2":"2 43477  88.9906 354.8137 0013435 184.2562 175.8574 15.25922121275654","OBJECT_ID":"2018-047B","OBJECT_NUMBER":"43477","SEMIMAJOR_AXIS":"6866.155","PERIOD":"94.369","APOGEE":"497.245","PERIGEE":"478.795","DECAYED":"0"},{"COMMENT":"GENERATED VIA SPACETRACK.ORG API","ORIGINATOR":"18 SPCS","NORAD_CAT_ID":"43477","OBJECT_NAME":"GRACE-FO 2","OBJECT_TYPE":"PAYLOAD","CLASSIFICATION_TYPE":"U","INTLDES":"18047B","EPOCH":"2023-05-07 02:24:58","EPOCH_MICROSECONDS":"25376","MEAN_MOTION":"15.25925185","ECCENTRICITY":"0.0013563","INCLINATION":"88.9905","RA_OF_ASC_NODE":"354.7426","ARG_OF_PERICENTER":"182.15","MEAN_ANOMALY":"177.9693","EPHEMERIS_TYPE":"0","ELEMENT_SET_NO":"999","REV_AT_EPOCH":"27573","BSTAR":"0.00016547","MEAN_MOTION_DOT":"0.00004281","MEAN_MOTION_DDOT":"0","FILE":"3902426","TLE_LINE0":"0 GRACE-FO 2","TLE_LINE1":"1 43477U 18047B   23127.10067159  .00004281  00000-0  16547-3 0  9990","TLE_LINE2":"2 43477  88.9905 354.7426 0013563 182.1500 177.9693 15.25925185275731","OBJECT_ID":"2018-047B","OBJECT_NUMBER":"43477","SEMIMAJOR_AXIS":"6866.146","PERIOD":"94.369","APOGEE":"497.323","PERIGEE":"478.698","DECAYED":"0"},{"COMMENT":"GENERATED VIA SPACETRACK.ORG API","ORIGINATOR":"18 SPCS","NORAD_CAT_ID":"43477","OBJECT_NAME":"GRACE-FO 2","OBJECT_TYPE":"PAYLOAD","CLASSIFICATION_TYPE":"U","INTLDES":"18047B","EPOCH":"2023-05-07 13:26:00","EPOCH_MICROSECONDS":"802464","MEAN_MOTION":"15.25927651","ECCENTRICITY":"0.0013669","INCLINATION":"88.9903","RA_OF_ASC_NODE":"354.6803","ARG_OF_PERICENTER":"180.3801","MEAN_ANOMALY":"179.744","EPHEMERIS_TYPE":"0","ELEMENT_SET_NO":"999","REV_AT_EPOCH":"27580","BSTAR":"0.00015153","MEAN_MOTION_DOT":"0.00003923","MEAN_MOTION_DDOT":"0","FILE":"3903215","TLE_LINE0":"0 GRACE-FO 2","TLE_LINE1":"1 43477U 18047B   23127.55973151  .00003923  00000-0  15153-3 0  9991","TLE_LINE2":"2 43477  88.9903 354.6803 0013669 180.3801 179.7440 15.25927651275806","OBJECT_ID":"2018-047B","OBJECT_NUMBER":"43477","SEMIMAJOR_AXIS":"6866.138","PERIOD":"94.369","APOGEE":"497.389","PERIGEE":"478.618","DECAYED":"0"},{"COMMENT":"GENERATED VIA SPACETRACK.ORG API","ORIGINATOR":"18 SPCS","NORAD_CAT_ID":"43477","OBJECT_NAME":"GRACE-FO 2","OBJECT_TYPE":"PAYLOAD","CLASSIFICATION_TYPE":"U","INTLDES":"18047B","EPOCH":"2023-05-07 21:18:11","EPOCH_MICROSECONDS":"283840","MEAN_MOTION":"15.25930338","ECCENTRICITY":"0.0013731","INCLINATION":"88.9902","RA_OF_ASC_NODE":"354.6358","ARG_OF_PERICENTER":"179.1458","MEAN_ANOMALY":"180.9816","EPHEMERIS_TYPE":"0","ELEMENT_SET_NO":"999","REV_AT_EPOCH":"27585","BSTAR":"0.00015482","MEAN_MOTION_DOT":"0.00004008","MEAN_MOTION_DDOT":"0","FILE":"3903413","TLE_LINE0":"0 GRACE-FO 2","TLE_LINE1":"1 43477U 18047B   23127.88763060  .00004008  00000-0  15482-3 0  9993","TLE_LINE2":"2 43477  88.9902 354.6358 0013731 179.1458 180.9816 15.25930338275856","OBJECT_ID":"2018-047B","OBJECT_NUMBER":"43477","SEMIMAJOR_AXIS":"6866.130","PERIOD":"94.369","APOGEE":"497.423","PERIGEE":"478.567","DECAYED":"0"},{"COMMENT":"GENERATED VIA SPACETRACK.ORG API","ORIGINATOR":"18 SPCS","NORAD_CAT_ID":"43477","OBJECT_NAME":"GRACE-FO 2","OBJECT_TYPE":"PAYLOAD","CLASSIFICATION_TYPE":"U","INTLDES":"18047B","EPOCH":"2023-05-08 03:35:55","EPOCH_MICROSECONDS":"644576","MEAN_MOTION":"15.25931785","ECCENTRICITY":"0.0013788","INCLINATION":"88.9902","RA_OF_ASC_NODE":"354.6002","ARG_OF_PERICENTER":"178.1437","MEAN_ANOMALY":"181.9866","EPHEMERIS_TYPE":"0","ELEMENT_SET_NO":"999","REV_AT_EPOCH":"27589","BSTAR":"0.00014578","MEAN_MOTION_DOT":"0.00003776","MEAN_MOTION_DDOT":"0","FILE":"3903506","TLE_LINE0":"0 GRACE-FO 2","TLE_LINE1":"1 43477U 18047B   23128.14994959  .00003776  00000-0  14578-3 0  9992","TLE_LINE2":"2 43477  88.9902 354.6002 0013788 178.1437 181.9866 15.25931785275897","OBJECT_ID":"2018-047B","OBJECT_NUMBER":"43477","SEMIMAJOR_AXIS":"6866.126","PERIOD":"94.369","APOGEE":"497.458","PERIGEE":"478.524","DECAYED":"0"},{"COMMENT":"GENERATED VIA SPACETRACK.ORG API","ORIGINATOR":"18 SPCS","NORAD_CAT_ID":"43477","OBJECT_NAME":"GRACE-FO 2","OBJECT_TYPE":"PAYLOAD","CLASSIFICATION_TYPE":"U","INTLDES":"18047B","EPOCH":"2023-05-08 22:29:08","EPOCH_MICROSECONDS":"563488","MEAN_MOTION":"15.25937436","ECCENTRICITY":"0.0013933","INCLINATION":"88.9902","RA_OF_ASC_NODE":"354.4934","ARG_OF_PERICENTER":"175.2587","MEAN_ANOMALY":"184.8796","EPHEMERIS_TYPE":"0","ELEMENT_SET_NO":"999","REV_AT_EPOCH":"27601","BSTAR":"0.00014391","MEAN_MOTION_DOT":"0.00003729","MEAN_MOTION_DDOT":"0","FILE":"3904305","TLE_LINE0":"0 GRACE-FO 2","TLE_LINE1":"1 43477U 18047B   23128.93690467  .00003729  00000-0  14391-3 0  9997","TLE_LINE2":"2 43477  88.9902 354.4934 0013933 175.2587 184.8796 15.25937436276013","OBJECT_ID":"2018-047B","OBJECT_NUMBER":"43477","SEMIMAJOR_AXIS":"6866.109","PERIOD":"94.368","APOGEE":"497.540","PERIGEE":"478.407","DECAYED":"0"},{"COMMENT":"GENERATED VIA SPACETRACK.ORG API","ORIGINATOR":"18 SPCS","NORAD_CAT_ID":"43477","OBJECT_NAME":"GRACE-FO 2","OBJECT_TYPE":"PAYLOAD","CLASSIFICATION_TYPE":"U","INTLDES":"18047B","EPOCH":"2023-05-09 04:46:52","EPOCH_MICROSECONDS":"804128","MEAN_MOTION":"15.25938832","ECCENTRICITY":"0.0014004","INCLINATION":"88.9901","RA_OF_ASC_NODE":"354.4578","ARG_OF_PERICENTER":"174.1965","MEAN_ANOMALY":"185.9448","EPHEMERIS_TYPE":"0","ELEMENT_SET_NO":"999","REV_AT_EPOCH":"27605","BSTAR":"0.00013117","MEAN_MOTION_DOT":"0.00003402","MEAN_MOTION_DDOT":"0","FILE":"3904351","TLE_LINE0":"0 GRACE-FO 2","TLE_LINE1":"1 43477U 18047B   23129.19922227  .00003402  00000-0  13117-3 0  9991","TLE_LINE2":"2 43477  88.9901 354.4578 0014004 174.1965 185.9448 15.25938832276055","OBJECT_ID":"2018-047B","OBJECT_NUMBER":"43477","SEMIMAJOR_AXIS":"6866.105","PERIOD":"94.368","APOGEE":"497.585","PERIGEE":"478.354","DECAYED":"0"},{"COMMENT":"GENERATED VIA SPACETRACK.ORG API","ORIGINATOR":"18 SPCS","NORAD_CAT_ID":"43477","OBJECT_NAME":"GRACE-FO 2","OBJECT_TYPE":"PAYLOAD","CLASSIFICATION_TYPE":"U","INTLDES":"18047B","EPOCH":"2023-05-09 14:13:29","EPOCH_MICROSECONDS":"159040","MEAN_MOTION":"15.25941438","ECCENTRICITY":"0.0014089","INCLINATION":"88.99","RA_OF_ASC_NODE":"354.4044","ARG_OF_PERICENTER":"172.725","MEAN_ANOMALY":"187.4206","EPHEMERIS_TYPE":"0","ELEMENT_SET_NO":"999","REV_AT_EPOCH":"27611","BSTAR":"0.00013253","MEAN_MOTION_DOT":"0.00003437","MEAN_MOTION_DDOT":"0","FILE":"3904553","TLE_LINE0":"0 GRACE-FO 2","TLE_LINE1":"1 43477U 18047B   23129.59269860  .00003437  00000-0  13253-3 0  9991","TLE_LINE2":"2 43477  88.9900 354.4044 0014089 172.7250 187.4206 15.25941438276118","OBJECT_ID":"2018-047B","OBJECT_NUMBER":"43477","SEMIMAJOR_AXIS":"6866.097","PERIOD":"94.368","APOGEE":"497.636","PERIGEE":"478.288","DECAYED":"0"},{"COMMENT":"GENERATED VIA SPACETRACK.ORG API","ORIGINATOR":"18 SPCS","NORAD_CAT_ID":"43477","OBJECT_NAME":"GRACE-FO 2","OBJECT_TYPE":"PAYLOAD","CLASSIFICATION_TYPE":"U","INTLDES":"18047B","EPOCH":"2023-05-10 13:49:59","EPOCH_MICROSECONDS":"779776","MEAN_MOTION":"15.25949094","ECCENTRICITY":"0.0014267","INCLINATION":"88.99","RA_OF_ASC_NODE":"354.271","ARG_OF_PERICENTER":"169.0569","MEAN_ANOMALY":"191.0993","EPHEMERIS_TYPE":"0","ELEMENT_SET_NO":"999","REV_AT_EPOCH":"27626","BSTAR":"0.00015928","MEAN_MOTION_DOT":"0.00004126","MEAN_MOTION_DDOT":"0","FILE":"3904555","TLE_LINE0":"0 GRACE-FO 2","TLE_LINE1":"1 43477U 18047B   23130.57638634  .00004126  00000-0  15928-3 0  9997","TLE_LINE2":"2 43477  88.9900 354.2710 0014267 169.0569 191.0993 15.25949094276262","OBJECT_ID":"2018-047B","OBJECT_NUMBER":"43477","SEMIMAJOR_AXIS":"6866.074","PERIOD":"94.367","APOGEE":"497.735","PERIGEE":"478.143","DECAYED":"0"}]